{
  "type": "FeatureCollection",
  "features": [
    {
      "type": "Feature",
      "properties": {
        "norad_id": 37836,
        "name": "EUTELSAT 16A",
        "group": "eutelsat",
        "lat": -0.008301091728837933,
        "lon": -179.78398000174215,
        "alt_km": 35782.34423971135,
        "timestamp": "2025-12-08T05:48:08.718769+00:00",
        "meta_object_name": "EUTELSAT 16A",
        "meta_object_id": "2011-057A",
        "meta_epoch": "2025-12-07T22:16:15.046752",
        "meta_mean_motion": 1.00270409,
        "meta_eccentricity": 0.00059197,
        "meta_inclination": 0.058,
        "meta_ra_of_asc_node": 358.1775,
        "meta_arg_of_pericenter": 262.6883,
        "meta_mean_anomaly": 166.1417,
        "meta_ephemeris_type": 0,
        "meta_classification_type": "U",
        "meta_norad_cat_id": 37836,
        "meta_element_set_no": 999,
        "meta_rev_at_epoch": 541,
        "meta_bstar": 0,
        "meta_mean_motion_dot": 1.07e-06,
        "meta_mean_motion_ddot": 0,
        "tle_line1": "1 37836U 11057A   25341.92795193  .00000107  00000+0  00000+0 0  9997",
        "tle_line2": "2 37836   0.0580 358.1775 0005919 262.6883 166.1417  1.00270409  5416"
      },
      "geometry": {
        "type": "Point",
        "coordinates": [
          -179.78398000174215,
          -0.008301091728837933
        ]
      }
    },
    {
      "type": "Feature",
      "properties": {
        "norad_id": 38992,
        "name": "EUTELSAT 21B",
        "group": "eutelsat",
        "lat": -0.0205370318994583,
        "lon": -174.15694533263363,
        "alt_km": 35783.97589769979,
        "timestamp": "2025-12-08T05:48:08.718781+00:00",
        "meta_object_name": "EUTELSAT 21B",
        "meta_object_id": "2012-062B",
        "meta_epoch": "2025-12-07T22:17:52.391904",
        "meta_mean_motion": 1.00270353,
        "meta_eccentricity": 0.00032336,
        "meta_inclination": 0.0662,
        "meta_ra_of_asc_node": 355.5042,
        "meta_arg_of_pericenter": 270.0007,
        "meta_mean_anomaly": 167.5058,
        "meta_ephemeris_type": 0,
        "meta_classification_type": "U",
        "meta_norad_cat_id": 38992,
        "meta_element_set_no": 999,
        "meta_rev_at_epoch": 4791,
        "meta_bstar": 0,
        "meta_mean_motion_dot": 1.33e-06,
        "meta_mean_motion_ddot": 0,
        "tle_line1": "1 38992U 12062B   25341.92907861  .00000133  00000+0  00000+0 0  9994",
        "tle_line2": "2 38992   0.0662 355.5042 0003233 270.0007 167.5058  1.00270353 47912"
      },
      "geometry": {
        "type": "Point",
        "coordinates": [
          -174.15694533263363,
          -0.0205370318994583
        ]
      }
    },
    {
      "type": "Feature",
      "properties": {
        "norad_id": 39020,
        "name": "EUTELSAT 70B",
        "group": "eutelsat",
        "lat": -0.064279579501759,
        "lon": -125.21439476782528,
        "alt_km": 35768.10973523528,
        "timestamp": "2025-12-08T05:48:08.718793+00:00",
        "meta_object_name": "EUTELSAT 70B",
        "meta_object_id": "2012-069A",
        "meta_epoch": "2025-12-07T21:55:38.755200",
        "meta_mean_motion": 1.00272028,
        "meta_eccentricity": 0.00043036,
        "meta_inclination": 0.0647,
        "meta_ra_of_asc_node": 12.0095,
        "meta_arg_of_pericenter": 233.285,
        "meta_mean_anomaly": 231.0572,
        "meta_ephemeris_type": 0,
        "meta_classification_type": "U",
        "meta_norad_cat_id": 39020,
        "meta_element_set_no": 999,
        "meta_rev_at_epoch": 4759,
        "meta_bstar": 0,
        "meta_mean_motion_dot": -4.1e-07,
        "meta_mean_motion_ddot": 0,
        "tle_line1": "1 39020U 12069A   25341.91364300 -.00000041  00000+0  00000+0 0  9997",
        "tle_line2": "2 39020   0.0647  12.0095 0004303 233.2850 231.0572  1.00272028 47590"
      },
      "geometry": {
        "type": "Point",
        "coordinates": [
          -125.21439476782528,
          -0.064279579501759
        ]
      }
    },
    {
      "type": "Feature",
      "properties": {
        "norad_id": 39122,
        "name": "EUTELSAT 117 WEST A",
        "group": "eutelsat",
        "lat": 0.03392462454961978,
        "lon": 47.50053648674108,
        "alt_km": 35797.932588561845,
        "timestamp": "2025-12-08T05:48:08.718805+00:00",
        "meta_object_name": "EUTELSAT 117 WEST A",
        "meta_object_id": "2013-012A",
        "meta_epoch": "2025-12-07T21:38:12.535008",
        "meta_mean_motion": 1.00270287,
        "meta_eccentricity": 0.00031233,
        "meta_inclination": 0.0134,
        "meta_ra_of_asc_node": 336.6196,
        "meta_arg_of_pericenter": 280.9528,
        "meta_mean_anomaly": 27.0981,
        "meta_ephemeris_type": 0,
        "meta_classification_type": "U",
        "meta_norad_cat_id": 39122,
        "meta_element_set_no": 999,
        "meta_rev_at_epoch": 4651,
        "meta_bstar": 0,
        "meta_mean_motion_dot": -1e-07,
        "meta_mean_motion_ddot": 0,
        "tle_line1": "1 39122U 13012A   25341.90153397 -.00000010  00000+0  00000+0 0  9996",
        "tle_line2": "2 39122   0.0134 336.6196 0003123 280.9528  27.0981  1.00270287 46514"
      },
      "geometry": {
        "type": "Point",
        "coordinates": [
          47.50053648674108,
          0.03392462454961978
        ]
      }
    },
    {
      "type": "Feature",
      "properties": {
        "norad_id": 39163,
        "name": "EUTELSAT 7B",
        "group": "eutelsat",
        "lat": 0.021641637172123605,
        "lon": 171.23641581666126,
        "alt_km": 35801.2331270506,
        "timestamp": "2025-12-08T05:48:08.718817+00:00",
        "meta_object_name": "EUTELSAT 7B",
        "meta_object_id": "2013-022A",
        "meta_epoch": "2025-12-07T22:13:45.286176",
        "meta_mean_motion": 1.00271007,
        "meta_eccentricity": 0.00045249,
        "meta_inclination": 0.0697,
        "meta_ra_of_asc_node": 11.3174,
        "meta_arg_of_pericenter": 301.9339,
        "meta_mean_anomaly": 104.1148,
        "meta_ephemeris_type": 0,
        "meta_classification_type": "U",
        "meta_norad_cat_id": 39163,
        "meta_element_set_no": 999,
        "meta_rev_at_epoch": 4603,
        "meta_bstar": 0,
        "meta_mean_motion_dot": 5.1e-07,
        "meta_mean_motion_ddot": 0,
        "tle_line1": "1 39163U 13022A   25341.92621859  .00000051  00000+0  00000+0 0  9991",
        "tle_line2": "2 39163   0.0697  11.3174 0004524 301.9339 104.1148  1.00271007 46036"
      },
      "geometry": {
        "type": "Point",
        "coordinates": [
          171.23641581666126,
          0.021641637172123605
        ]
      }
    },
    {
      "type": "Feature",
      "properties": {
        "norad_id": 39612,
        "name": "EXPRESS-AT1",
        "group": "eutelsat",
        "lat": -0.034744856515310285,
        "lon": -139.71788327232352,
        "alt_km": 35784.93521508306,
        "timestamp": "2025-12-08T05:48:08.718829+00:00",
        "meta_object_name": "EXPRESS-AT1",
        "meta_object_id": "2014-010A",
        "meta_epoch": "2025-12-07T22:49:38.694720",
        "meta_mean_motion": 1.00271829,
        "meta_eccentricity": 3.636e-05,
        "meta_inclination": 0.0165,
        "meta_ra_of_asc_node": 337.2246,
        "meta_arg_of_pericenter": 199.9972,
        "meta_mean_anomaly": 298.1515,
        "meta_ephemeris_type": 0,
        "meta_classification_type": "U",
        "meta_norad_cat_id": 39612,
        "meta_element_set_no": 999,
        "meta_rev_at_epoch": 4290,
        "meta_bstar": 0,
        "meta_mean_motion_dot": 0,
        "meta_mean_motion_ddot": 0,
        "tle_line1": "1 39612U 14010A   25341.95114230  .00000000  00000+0  00000+0 0  9995",
        "tle_line2": "2 39612   0.0165 337.2246 0000363 199.9972 298.1515  1.00271829 42906"
      },
      "geometry": {
        "type": "Point",
        "coordinates": [
          -139.71788327232352,
          -0.034744856515310285
        ]
      }
    },
    {
      "type": "Feature",
      "properties": {
        "norad_id": 39613,
        "name": "EXPRESS-AT2",
        "group": "eutelsat",
        "lat": -0.007832032593781157,
        "lon": -55.85270221724942,
        "alt_km": 35780.37136670111,
        "timestamp": "2025-12-08T05:48:08.718841+00:00",
        "meta_object_name": "EXPRESS-AT2",
        "meta_object_id": "2014-010B",
        "meta_epoch": "2025-12-07T22:51:34.164864",
        "meta_mean_motion": 1.00271698,
        "meta_eccentricity": 0.00015074,
        "meta_inclination": 0.0161,
        "meta_ra_of_asc_node": 301.9417,
        "meta_arg_of_pericenter": 337.1811,
        "meta_mean_anomaly": 280.5938,
        "meta_ephemeris_type": 0,
        "meta_classification_type": "U",
        "meta_norad_cat_id": 39613,
        "meta_element_set_no": 999,
        "meta_rev_at_epoch": 4258,
        "meta_bstar": 0,
        "meta_mean_motion_dot": -2.78e-06,
        "meta_mean_motion_ddot": 0,
        "tle_line1": "1 39613U 14010B   25341.95247876 -.00000278  00000+0  00000+0 0  9997",
        "tle_line2": "2 39613   0.0161 301.9417 0001507 337.1811 280.5938  1.00271698 42582"
      },
      "geometry": {
        "type": "Point",
        "coordinates": [
          -55.85270221724942,
          -0.007832032593781157
        ]
      }
    }
  ]
}